SAUDISAT 1C (SO-50)     
1 27607U 02058C   26204.09590113  .00000878  00000+0  12088-3 0  9993
2 27607  64.5523  17.8775 0074285 255.8289 103.4556 14.83110516269785
SAUDISAT 2              
1 28371U 04025F   26204.22802913  .00000212  00000+0  58424-4 0  9994
2 28371  98.5526 205.1444 0024593 183.1701 176.9344 14.56701476170993
SAUDISAT 3              
1 31118U 07012B   26204.84364103  .00000250  00000+0  48513-4 0  9998
2 31118  98.1471 155.2723 0015943 109.2109 251.0824 14.71444117 33131
PISAT                   
1 41784U 16059B   26204.44888959  .00000887  00000+0  15817-3 0  9991
2 41784  97.8196 203.3469 0030579  89.7127 270.7583 14.69041077525060
FLYING LAPTOP           
1 42831U 17042G   26204.84446713  .00002648  00000+0  20927-3 0  9995
2 42831  97.4848 359.0085 0019102   5.0388 355.1025 15.01353709491950
SALSAT                  
1 46495U 20068K   26204.44213958  .00007378  00000+0  25456-3 0  9993
2 46495  97.8868 209.7289 0010091 164.5021 195.6529 15.30258663320903
